{"type": "FeatureCollection", "features": [ {"type": "Feature", "properties": {"norad_id": 33492, "name": "GOSAT (IBUKI)", "group": "resource", "lat": 9.953549327088037, "lon": -87.17491670013956, "alt_km": 670.4535454576389, "timestamp": "2025-12-08T17:43:04.550669+00:00", "meta": {"OBJECT_NAME": "GOSAT (IBUKI)", "OBJECT_ID": "2009-002A", "EPOCH": "2025-12-08T07:07:42.326688", "MEAN_MOTION": 14.67542442, "ECCENTRICITY": 9.622e-05, "INCLINATION": 98.0769, "RA_OF_ASC_NODE": 90.9621, "ARG_OF_PERICENTER": 87.8798, "MEAN_ANOMALY": 272.2516, "EPHEMERIS_TYPE": 0, "CLASSIFICATION_TYPE": "U", "NORAD_CAT_ID": 33492, "ELEMENT_SET_NO": 999, "REV_AT_EPOCH": 90346, "BSTAR": 0.00032165187, "MEAN_MOTION_DOT": 1.776e-05, "MEAN_MOTION_DDOT": 0}, "tle": {"line1": "1 33492U 09002A   25342.29701767  .00001776  00000+0  32165-3 0  9997", "line2": "2 33492  98.0769  90.9621 0000962  87.8798 272.2516 14.67542442903469"}}, "geometry": {"type": "Point", "coordinates": [-87.17491670013956, 9.953549327088037]}}, {"type": "Feature", "properties": {"norad_id": 35681, "name": "DEIMOS-1", "group": "resource", "lat": 38.19002603082591, "lon": -30.350081579795592, "alt_km": 641.407982061799, "timestamp": "2025-12-08T17:43:04.550681+00:00", "meta": {"OBJECT_NAME": "DEIMOS-1", "OBJECT_ID": "2009-041A", "EPOCH": "2025-12-08T05:40:56.735328", "MEAN_MOTION": 14.74942652, "ECCENTRICITY": 0.00027029, "INCLINATION": 97.7153, "RA_OF_ASC_NODE": 143.0501, "ARG_OF_PERICENTER": 89.0402, "MEAN_ANOMALY": 271.1117, "EPHEMERIS_TYPE": 0, "CLASSIFICATION_TYPE": "U", "NORAD_CAT_ID": 35681, "ELEMENT_SET_NO": 999, "REV_AT_EPOCH": 87873, "BSTAR": 0.00021265104, "MEAN_MOTION_DOT": 1.381e-05, "MEAN_MOTION_DDOT": 0}, "tle": {"line1": "1 35681U 09041A   25342.23676777  .00001381  00000+0  21265-3 0  9999", "line2": "2 35681  97.7153 143.0501 0002702  89.0402 271.1117 14.74942652878732"}}, "geometry": {"type": "Point", "coordinates": [-30.350081579795592, 38.19002603082591]}}, {"type": "Feature", "properties": {"norad_id": 35682, "name": "DUBAISAT-1", "group": "resource", "lat": 78.15353447851408, "lon": 71.51163242113414, "alt_km": 641.8131277832636, "timestamp": "2025-12-08T17:43:04.550692+00:00", "meta": {"OBJECT_NAME": "DUBAISAT-1", "OBJECT_ID": "2009-041B", "EPOCH": "2025-12-08T07:34:47.404416", "MEAN_MOTION": 14.74585006, "ECCENTRICITY": 0.00098274, "INCLINATION": 97.979, "RA_OF_ASC_NODE": 113.061, "ARG_OF_PERICENTER": 329.8871, "MEAN_ANOMALY": 30.1772, "EPHEMERIS_TYPE": 0, "CLASSIFICATION_TYPE": "U", "NORAD_CAT_ID": 35682, "ELEMENT_SET_NO": 999, "REV_AT_EPOCH": 87696, "BSTAR": 0.00037631824, "MEAN_MOTION_DOT": 2.459e-05, "MEAN_MOTION_DDOT": 0}, "tle": {"line1": "1 35682U 09041B   25342.31582644  .00002459  00000+0  37632-3 0  9990", "line2": "2 35682  97.9790 113.0610 0009827 329.8871  30.1772 14.74585006876969"}}, "geometry": {"type": "Point", "coordinates": [71.51163242113414, 78.15353447851408]}}, {"type": "Feature", "properties": {"norad_id": 35931, "name": "OCEANSAT-2", "group": "resource", "lat": -74.71562913088292, "lon": 131.79888478405582, "alt_km": 913.480475360072, "timestamp": "2025-12-08T17:43:04.550704+00:00", "meta": {"OBJECT_NAME": "OCEANSAT-2", "OBJECT_ID": "2009-051A", "EPOCH": "2025-12-08T06:11:58.657056", "MEAN_MOTION": 13.99625664, "ECCENTRICITY": 0.00163946, "INCLINATION": 98.2226, "RA_OF_ASC_NODE": 343.3135, "ARG_OF_PERICENTER": 56.7201, "MEAN_ANOMALY": 303.5534, "EPHEMERIS_TYPE": 0, "CLASSIFICATION_TYPE": "U", "NORAD_CAT_ID": 35931, "ELEMENT_SET_NO": 999, "REV_AT_EPOCH": 85262, "BSTAR": -7.6171785e-05, "MEAN_MOTION_DOT": -1.49e-06, "MEAN_MOTION_DDOT": 0}, "tle": {"line1": "1 35931U 09051A   25342.25831779 -.00000149  00000+0 -76172-4 0  9996", "line2": "2 35931  98.2226 343.3135 0016394  56.7201 303.5534 13.99625664852625"}}, "geometry": {"type": "Point", "coordinates": [131.79888478405582, -74.71562913088292]}}, {"type": "Feature", "properties": {"norad_id": 35946, "name": "WORLDVIEW-2 (WV-2)", "group": "resource", "lat": -11.068741012307811, "lon": -127.79358683924497, "alt_km": 772.1561705078984, "timestamp": "2025-12-08T17:43:04.550715+00:00", "meta": {"OBJECT_NAME": "WORLDVIEW-2 (WV-2)", "OBJECT_ID": "2009-055A", "EPOCH": "2025-12-08T06:48:37.213920", "MEAN_MOTION": 14.3764993, "ECCENTRICITY": 0.00053845, "INCLINATION": 98.4765, "RA_OF_ASC_NODE": 53.4301, "ARG_OF_PERICENTER": 77.5852, "MEAN_ANOMALY": 282.5938, "EPHEMERIS_TYPE": 0, "CLASSIFICATION_TYPE": "U", "NORAD_CAT_ID": 35946, "ELEMENT_SET_NO": 999, "REV_AT_EPOCH": 84821, "BSTAR": 0.00014796825, "MEAN_MOTION_DOT": 4.01e-06, "MEAN_MOTION_DDOT": 0}, "tle": {"line1": "1 35946U 09055A   25342.28376405  .00000401  00000+0  14797-3 0  9992", "line2": "2 35946  98.4765  53.4301 0005384  77.5852 282.5938 14.37649930848214"}}, "geometry": {"type": "Point", "coordinates": [-127.79358683924497, -11.068741012307811]}}, {"type": "Feature", "properties": {"norad_id": 36036, "name": "SMOS", "group": "resource", "lat": -16.629088183769937, "lon": -14.695290652359994, "alt_km": 764.5161050939014, "timestamp": "2025-12-08T17:43:04.550726+00:00", "meta": {"OBJECT_NAME": "SMOS", "OBJECT_ID": "2009-059A", "EPOCH": "2025-12-08T06:47:58.675200", "MEAN_MOTION": 14.39735674, "ECCENTRICITY": 0.00011141, "INCLINATION": 98.4383, "RA_OF_ASC_NODE": 167.3978, "ARG_OF_PERICENTER": 85.3107, "MEAN_ANOMALY": 274.8208, "EPHEMERIS_TYPE": 0, "CLASSIFICATION_TYPE": "U", "NORAD_CAT_ID": 36036, "ELEMENT_SET_NO": 999, "REV_AT_EPOCH": 84598, "BSTAR": 0.00025754552, "MEAN_MOTION_DOT": 7.63e-06, "MEAN_MOTION_DDOT": 0}, "tle": {"line1": "1 36036U 09059A   25342.28331800  .00000763  00000+0  25755-3 0  9994", "line2": "2 36036  98.4383 167.3978 0001114  85.3107 274.8208 14.39735674845981"}}, "geometry": {"type": "Point", "coordinates": [-14.695290652359994, -16.629088183769937]}}, {"type": "Feature", "properties": {"norad_id": 36110, "name": "YAOGAN-7", "group": "resource", "lat": -14.981181435351399, "lon": 42.34424370524968, "alt_km": 644.0829519647295, "timestamp": "2025-12-08T17:43:04.550737+00:00", "meta": {"OBJECT_NAME": "YAOGAN-7", "OBJECT_ID": "2009-069A", "EPOCH": "2025-12-08T05:27:36.490752", "MEAN_MOTION": 14.77722582, "ECCENTRICITY": 0.00235226, "INCLINATION": 98.0303, "RA_OF_ASC_NODE": 224.0005, "ARG_OF_PERICENTER": 296.6511, "MEAN_ANOMALY": 63.229, "EPHEMERIS_TYPE": 0, "CLASSIFICATION_TYPE": "U", "NORAD_CAT_ID": 36110, "ELEMENT_SET_NO": 999, "REV_AT_EPOCH": 86142, "BSTAR": 0.00019335483, "MEAN_MOTION_DOT": 1.339e-05, "MEAN_MOTION_DDOT": 0}, "tle": {"line1": "1 36110U 09069A   25342.22750568  .00001339  00000+0  19335-3 0  9995", "line2": "2 36110  98.0303 224.0005 0023522 296.6511  63.2290 14.77722582861421"}}, "geometry": {"type": "Point", "coordinates": [42.34424370524968, -14.981181435351399]}}, {"type": "Feature", "properties": {"norad_id": 36605, "name": "TANDEM-X", "group": "resource", "lat": -25.25413216399727, "lon": 164.6410425212229, "alt_km": 514.7385459532998, "timestamp": "2025-12-08T17:43:04.550748+00:00", "meta": {"OBJECT_NAME": "TANDEM-X", "OBJECT_ID": "2010-030A", "EPOCH": "2025-12-07T13:56:33.880416", "MEAN_MOTION": 15.19154618, "ECCENTRICITY": 0.00020407, "INCLINATION": 97.4453, "RA_OF_ASC_NODE": 347.0372, "ARG_OF_PERICENTER": 90.9544, "MEAN_ANOMALY": 269.1924, "EPHEMERIS_TYPE": 0, "CLASSIFICATION_TYPE": "U", "NORAD_CAT_ID": 36605, "ELEMENT_SET_NO": 999, "REV_AT_EPOCH": 85755, "BSTAR": 0.00016903556, "MEAN_MOTION_DOT": 3.485e-05, "MEAN_MOTION_DDOT": 0}, "tle": {"line1": "1 36605U 10030A   25341.58094769  .00003485  00000+0  16904-3 0  9999", "line2": "2 36605  97.4453 347.0372 0002040  90.9544 269.1924 15.19154618857551"}}, "geometry": {"type": "Point", "coordinates": [164.6410425212229, -25.25413216399727]}}, {"type": "Feature", "properties": {"norad_id": 36795, "name": "CARTOSAT-2B", "group": "resource", "lat": 70.46583042724527, "lon": -125.41761410643954, "alt_km": 617.7807354836623, "timestamp": "2025-12-08T17:43:04.550759+00:00", "meta": {"OBJECT_NAME": "CARTOSAT-2B", "OBJECT_ID": "2010-035A", "EPOCH": "2025-12-08T05:51:53.340768", "MEAN_MOTION": 14.78779861, "ECCENTRICITY": 0.00129099, "INCLINATION": 97.7858, "RA_OF_ASC_NODE": 31.4208, "ARG_OF_PERICENTER": 90.9112, "MEAN_ANOMALY": 269.3579, "EPHEMERIS_TYPE": 0, "CLASSIFICATION_TYPE": "U", "NORAD_CAT_ID": 36795, "ELEMENT_SET_NO": 999, "REV_AT_EPOCH": 83163, "BSTAR": 0.00020823065, "MEAN_MOTION_DOT": 1.482e-05, "MEAN_MOTION_DDOT": 0}, "tle": {"line1": "1 36795U 10035A   25342.24436737  .00001482  00000+0  20823-3 0  9993", "line2": "2 36795  97.7858  31.4208 0012909  90.9112 269.3579 14.78779861831637"}}, "geometry": {"type": "Point", "coordinates": [-125.41761410643954, 70.46583042724527]}}, {"type": "Feature", "properties": {"norad_id": 36834, "name": "YAOGAN-10", "group": "resource", "lat": 73.81424976767248, "lon": -148.77398986610666, "alt_km": 606.8457806073102, "timestamp": "2025-12-08T17:43:04.550770+00:00", "meta": {"OBJECT_NAME": "YAOGAN-10", "OBJECT_ID": "2010-038A", "EPOCH": "2025-12-08T07:35:30.386688", "MEAN_MOTION": 14.84581928, "ECCENTRICITY": 0.00015091, "INCLINATION": 97.9143, "RA_OF_ASC_NODE": 2.1699, "ARG_OF_PERICENTER": 84.8067, "MEAN_ANOMALY": 285.7319, "EPHEMERIS_TYPE": 0, "CLASSIFICATION_TYPE": "U", "NORAD_CAT_ID": 36834, "ELEMENT_SET_NO": 999, "REV_AT_EPOCH": 82888, "BSTAR": 0.00034753657, "MEAN_MOTION_DOT": 2.881e-05, "MEAN_MOTION_DDOT": 0}, "tle": {"line1": "1 36834U 10038A   25342.31632392  .00002881  00000+0  34754-3 0  9995", "line2": "2 36834  97.9143   2.1699 0001509  84.8067 285.7319 14.84581928828883"}}, "geometry": {"type": "Point", "coordinates": [-148.77398986610666, 73.81424976767248]}}]}